[{"OBJECT_NAME":"SCS-01 J","OBJECT_ID":"2025-100J","EPOCH":"2026-03-09T22:31:25.904064","MEAN_MOTION":15.31338011,"ECCENTRICITY":0.00063909,"INCLINATION":97.3693,"RA_OF_ASC_NODE":145.4824,"ARG_OF_PERICENTER":272.025,"MEAN_ANOMALY":88.026,"EPHEMERIS_TYPE":0,"CLASSIFICATION_TYPE":"U","NORAD_CAT_ID":63990,"ELEMENT_SET_NO":999,"REV_AT_EPOCH":4563,"BSTAR":0.0011832888,"MEAN_MOTION_DOT":0.00035886,"MEAN_MOTION_DDOT":0},{"OBJECT_NAME":"STARLINK-33966","OBJECT_ID":"2025-117A","EPOCH":"2026-03-09T22:20:25.281888","MEAN_MOTION":15.30218456,"ECCENTRICITY":0.00015058,"INCLINATION":53.1602,"RA_OF_ASC_NODE":38.4181,"ARG_OF_PERICENTER":97.1304,"MEAN_ANOMALY":262.9868,"EPHEMERIS_TYPE":0,"CLASSIFICATION_TYPE":"U","NORAD_CAT_ID":64203,"ELEMENT_SET_NO":999,"REV_AT_EPOCH":4459,"BSTAR":0.00095827645,"MEAN_MOTION_DOT":0.00028146,"MEAN_MOTION_DDOT":0}]
